start=new Date('2023-02-09T00:00:00.000Z').valueOf();
sats=[{"OBJECT_NAME":"STARLINK-1556","MEAN_MOTION_DOT":"0.00002142","PERIAPSIS":"546.403","CLASSIFICATION_TYPE":"U","ECCENTRICITY":"0.00011050","SITE":"AFETR","LAUNCH_DATE":"2020-08-07","NORAD_CAT_ID":"46033","PERIOD":"95.591","MEAN_ANOMALY":"244.5580","EPHEMERIS_TYPE":"0","EPOCH":"2023-02-08T16:36:08.355168","BSTAR":"0.00016261000000","SEMIMAJOR_AXIS":"6925.304","CENTER_NAME":"EARTH","OBJECT_ID":"2020-055G","TIME_SYSTEM":"UTC","MEAN_MOTION":"15.06414667","RCS_SIZE":"LARGE","APOAPSIS":"547.934","MEAN_ELEMENT_THEORY":"SGP4","TLE_LINE2":"2 46033  53.0541 136.9304 0001105 115.5523 244.5580 15.06414667139305","INCLINATION":"53.0541","TLE_LINE1":"1 46033U 20055G   23039.69176337  .00002142  00000-0  16261-3 0  9995","DECAY_DATE":null,"MEAN_MOTION_DDOT":"0.0000000000000","ARG_OF_PERICENTER":"115.5523","OBJECT_TYPE":"PAYLOAD","REF_FRAME":"TEME","COUNTRY_CODE":"US","RA_OF_ASC_NODE":"136.9304","REV_AT_EPOCH":"13930","FILE":"3780893","GP_ID":"224855432","ELEMENT_SET_NO":"999"},{"TLE_LINE1":"1 46034U 20055H   23039.62910387 -.00000259  00000-0  14793-5 0  9998","INCLINATION":"53.0570","DECAY_DATE":null,"MEAN_MOTION_DDOT":"0.0000000000000","ARG_OF_PERICENTER":"107.3444","REF_FRAME":"TEME","OBJECT_TYPE":"PAYLOAD","COUNTRY_CODE":"US","RA_OF_ASC_NODE":"137.2106","GP_ID":"224855183","REV_AT_EPOCH":"13929","FILE":"3780893","ELEMENT_SET_NO":"999","OBJECT_NAME":"STARLINK-1557","MEAN_MOTION_DOT":"-0.00000259","PERIAPSIS":"546.416","CLASSIFICATION_TYPE":"U","ECCENTRICITY":"0.00010890","SITE":"AFETR","LAUNCH_DATE":"2020-08-07","PERIOD":"95.591","NORAD_CAT_ID":"46034","MEAN_ANOMALY":"252.7664","EPHEMERIS_TYPE":"0","EPOCH":"2023-02-08T15:05:54.574368","SEMIMAJOR_AXIS":"6925.306","OBJECT_ID":"2020-055H","CENTER_NAME":"EARTH","BSTAR":"0.00000147930000","MEAN_MOTION":"15.06414039","TIME_SYSTEM":"UTC","APOAPSIS":"547.925","MEAN_ELEMENT_THEORY":"SGP4","RCS_SIZE":"LARGE","TLE_LINE2":"2 46034  53.0570 137.2106 0001089 107.3444 252.7664 15.06414039139299"},{"MEAN_ANOMALY":"314.1210","EPHEMERIS_TYPE":"0","EPOCH":"2023-02-08T12:05:27.967488","BSTAR":"-0.00014823000000","OBJECT_ID":"2020-055J","SEMIMAJOR_AXIS":"6925.356","CENTER_NAME":"EARTH","TIME_SYSTEM":"UTC","MEAN_MOTION":"15.06397593","RCS_SIZE":"LARGE","MEAN_ELEMENT_THEORY":"SGP4","APOAPSIS":"548.123","TLE_LINE2":"2 46035  53.0566 137.7738 0001303  45.9886 314.1210 15.06397593138785","OBJECT_NAME":"STARLINK-1558","MEAN_MOTION_DOT":"-0.00002488","CLASSIFICATION_TYPE":"U","PERIAPSIS":"546.319","SITE":"AFETR","ECCENTRICITY":"0.00013030","LAUNCH_DATE":"2020-08-07","NORAD_CAT_ID":"46035","PERIOD":"95.592","OBJECT_TYPE":"PAYLOAD","REF_FRAME":"TEME","COUNTRY_CODE":"US","RA_OF_ASC_NODE":"137.7738","REV_AT_EPOCH":"13878","FILE":"3779001","GP_ID":"224767309","ELEMENT_SET_NO":"999","INCLINATION":"53.0566","TLE_LINE1":"1 46035U 20055J   23039.50379592 -.00002488  00000-0 -14823-3 0  9992","DECAY_DATE":null,"ARG_OF_PERICENTER":"45.9886","MEAN_MOTION_DDOT":"0.0000000000000"},{"PERIOD":"95.592","NORAD_CAT_ID":"46036","LAUNCH_DATE":"2020-08-07","SITE":"AFETR","ECCENTRICITY":"0.00014390","PERIAPSIS":"546.220","CLASSIFICATION_TYPE":"U","MEAN_MOTION_DOT":"0.00001117","OBJECT_NAME":"STARLINK-1560","TLE_LINE2":"2 46036  53.0535 137.8411 0001439 120.1211 239.9920 15.06399127139305","MEAN_ELEMENT_THEORY":"SGP4","APOAPSIS":"548.213","RCS_SIZE":"LARGE","MEAN_MOTION":"15.06399127","TIME_SYSTEM":"UTC","SEMIMAJOR_AXIS":"6925.351","OBJECT_ID":"2020-055K","CENTER_NAME":"EARTH","BSTAR":"0.00009388800000","EPOCH":"2023-02-08T11:44:13.513056","EPHEMERIS_TYPE":"0","MEAN_ANOMALY":"239.9920","MEAN_MOTION_DDOT":"0.0000000000000","ARG_OF_PERICENTER":"120.1211","DECAY_DATE":null,"TLE_LINE1":"1 46036U 20055K   23039.48904529  .00001117  00000-0  93888-4 0  9999","INCLINATION":"53.0535","ELEMENT_SET_NO":"999","GP_ID":"224819866","REV_AT_EPOCH":"13930","FILE":"3780324","RA_OF_ASC_NODE":"137.8411","COUNTRY_CODE":"US","REF_FRAME":"TEME","OBJECT_TYPE":"PAYLOAD"},{"MEAN_MOTION_DDOT":"0.0000000000000","ARG_OF_PERICENTER":"93.7803","DECAY_DATE":null,"TLE_LINE1":"1 46037U 20055L   23039.75074445  .00029862  00000-0  20133-2 0  9993","INCLINATION":"53.0552","ELEMENT_SET_NO":"999","GP_ID":"224854933","REV_AT_EPOCH":"13933","FILE":"3780893","RA_OF_ASC_NODE":"136.6701","COUNTRY_CODE":"US","REF_FRAME":"TEME","OBJECT_TYPE":"PAYLOAD","PERIOD":"95.590","NORAD_CAT_ID":"46037","LAUNCH_DATE":"2020-08-07","ECCENTRICITY":"0.00011700","SITE":"AFETR","PERIAPSIS":"546.299","CLASSIFICATION_TYPE":"U","MEAN_MOTION_DOT":"0.00029862","OBJECT_NAME":"STARLINK-1565","TLE_LINE2":"2 46037  53.0552 136.6701 0001170  93.7803 266.3320 15.06433882139336","APOAPSIS":"547.920","MEAN_ELEMENT_THEORY":"SGP4","RCS_SIZE":"LARGE","MEAN_MOTION":"15.06433882","TIME_SYSTEM":"UTC","SEMIMAJOR_AXIS":"6925.245","OBJECT_ID":"2020-055L","CENTER_NAME":"EARTH","BSTAR":"0.00201330000000","EPOCH":"2023-02-08T18:01:04.320480","EPHEMERIS_TYPE":"0","MEAN_ANOMALY":"266.3320"},{"MEAN_MOTION_DDOT":"0.0000000000000","ARG_OF_PERICENTER":"108.8753","DECAY_DATE":null,"INCLINATION":"53.0571","TLE_LINE1":"1 46038U 20055M   23039.63279593  .00001974  00000-0  15133-3 0  9991","COUNTRY_CODE":"US","OBJECT_TYPE":"PAYLOAD","REF_FRAME":"TEME","ELEMENT_SET_NO":"999","REV_AT_EPOCH":"13931","FILE":"3780893","GP_ID":"224855683","RA_OF_ASC_NODE":"137.1936","MEAN_MOTION_DOT":"0.00001974","OBJECT_NAME":"STARLINK-1567","NORAD_CAT_ID":"46038","PERIOD":"95.592","LAUNCH_DATE":"2020-08-07","SITE":"AFETR","ECCENTRICITY":"0.00014490","CLASSIFICATION_TYPE":"U","PERIAPSIS":"546.189","EPOCH":"2023-02-08T15:11:13.568352","EPHEMERIS_TYPE":"0","MEAN_ANOMALY":"251.2393","TLE_LINE2":"2 46038  53.0571 137.1936 0001449 108.8753 251.2393 15.06406846139316","RCS_SIZE":"LARGE","APOAPSIS":"548.196","MEAN_ELEMENT_THEORY":"SGP4","TIME_SYSTEM":"UTC","MEAN_MOTION":"15.06406846","BSTAR":"0.00015133000000","CENTER_NAME":"EARTH","SEMIMAJOR_AXIS":"6925.328","OBJECT_ID":"2020-055M"},{"EPOCH":"2023-02-08T13:46:18.850656","EPHEMERIS_TYPE":"0","MEAN_ANOMALY":"262.6850","TLE_LINE2":"2 46039  53.0579 137.4568 0001463  97.4305 262.6850 15.06396531138795","RCS_SIZE":"LARGE","MEAN_ELEMENT_THEORY":"SGP4","APOAPSIS":"548.237","TIME_SYSTEM":"UTC","MEAN_MOTION":"15.06396531","BSTAR":"-0.00001196400000","SEMIMAJOR_AXIS":"6925.359","CENTER_NAME":"EARTH","OBJECT_ID":"2020-055N","MEAN_MOTION_DOT":"-0.00000460","OBJECT_NAME":"STARLINK-1569","NORAD_CAT_ID":"46039","PERIOD":"95.592","LAUNCH_DATE":"2020-08-07","ECCENTRICITY":"0.00014630","SITE":"AFETR","CLASSIFICATION_TYPE":"U","PERIAPSIS":"546.211","COUNTRY_CODE":"US","OBJECT_TYPE":"PAYLOAD","REF_FRAME":"TEME","ELEMENT_SET_NO":"999","REV_AT_EPOCH":"13879","FILE":"3779004","GP_ID":"224767567","RA_OF_ASC_NODE":"137.4568","MEAN_MOTION_DDOT":"0.0000000000000","ARG_OF_PERICENTER":"97.4305","DECAY_DATE":null,"INCLINATION":"53.0579","TLE_LINE1":"1 46039U 20055N   23039.57382929 -.00000460  00000-0 -11964-4 0  9993"},{"OBJECT_NAME":"STARLINK-1576","MEAN_MOTION_DOT":"0.00000307","SITE":"AFETR","ECCENTRICITY":"0.00010570","PERIAPSIS":"546.435","CLASSIFICATION_TYPE":"U","NORAD_CAT_ID":"46040","PERIOD":"95.591","LAUNCH_DATE":"2020-08-07","MEAN_ANOMALY":"265.7924","EPOCH":"2023-02-08T17:39:49.957632","EPHEMERIS_TYPE":"0","TIME_SYSTEM":"UTC","MEAN_MOTION":"15.06415130","BSTAR":"0.00003950100000","SEMIMAJOR_AXIS":"6925.302","CENTER_NAME":"EARTH","OBJECT_ID":"2020-055P","TLE_LINE2":"2 46040  53.0567 136.7307 0001057  94.3186 265.7924 15.06415130139298","RCS_SIZE":"LARGE","APOAPSIS":"547.899","MEAN_ELEMENT_THEORY":"SGP4","INCLINATION":"53.0567","TLE_LINE1":"1 46040U 20055P   23039.73599488  .00000307  00000-0  39501-4 0  9998","ARG_OF_PERICENTER":"94.3186","MEAN_MOTION_DDOT":"0.0000000000000","DECAY_DATE":null,"OBJECT_TYPE":"PAYLOAD","REF_FRAME":"TEME","COUNTRY_CODE":"US","RA_OF_ASC_NODE":"136.7307","ELEMENT_SET_NO":"999","REV_AT_EPOCH":"13929","FILE":"3780893","GP_ID":"224856683"},{"COUNTRY_CODE":"US","OBJECT_TYPE":"PAYLOAD","REF_FRAME":"TEME","FILE":"3780893","REV_AT_EPOCH":"13929","GP_ID":"224855433","ELEMENT_SET_NO":"999","RA_OF_ASC_NODE":"137.0605","DECAY_DATE":null,"MEAN_MOTION_DDOT":"0.0000000000000","ARG_OF_PERICENTER":"113.6757","INCLINATION":"53.0545","TLE_LINE1":"1 46041U 20055Q   23039.68072608  .00000066  00000-0  23333-4 0  9991","EPHEMERIS_TYPE":"0","EPOCH":"2023-02-08T16:20:14.733312","MEAN_ANOMALY":"246.4399","RCS_SIZE":"LARGE","MEAN_ELEMENT_THEORY":"SGP4","APOAPSIS":"548.299","TLE_LINE2":"2 46041  53.0545 137.0605 0001588 113.6757 246.4399 15.06404570139296","BSTAR":"0.00002333300000","SEMIMAJOR_AXIS":"6925.335","CENTER_NAME":"EARTH","OBJECT_ID":"2020-055Q","TIME_SYSTEM":"UTC","MEAN_MOTION":"15.06404570","MEAN_MOTION_DOT":"0.00000066","OBJECT_NAME":"STARLINK-1580","LAUNCH_DATE":"2020-08-07","NORAD_CAT_ID":"46041","PERIOD":"95.592","PERIAPSIS":"546.100","CLASSIFICATION_TYPE":"U","ECCENTRICITY":"0.00015880","SITE":"AFETR"},{"TLE_LINE1":"1 46042U 20055R   23039.58856728 -.00000377  00000-0 -63989-5 0  9993","INCLINATION":"53.0542","MEAN_MOTION_DDOT":"0.0000000000000","ARG_OF_PERICENTER":"83.5670","DECAY_DATE":null,"REF_FRAME":"TEME","OBJECT_TYPE":"PAYLOAD","COUNTRY_CODE":"US","RA_OF_ASC_NODE":"137.4010","ELEMENT_SET_NO":"999","GP_ID":"224767527","FILE":"3778999","REV_AT_EPOCH":"13880","OBJECT_NAME":"STARLINK-1581","MEAN_MOTION_DOT":"-0.00000377","ECCENTRICITY":"0.00011050","SITE":"AFETR","CLASSIFICATION_TYPE":"U","PERIAPSIS":"546.428","PERIOD":"95.592","NORAD_CAT_ID":"46042","LAUNCH_DATE":"2020-08-07","MEAN_ANOMALY":"276.5445","EPOCH":"2023-02-08T14:07:32.212992","EPHEMERIS_TYPE":"0","MEAN_MOTION":"15.06406768","TIME_SYSTEM":"UTC","SEMIMAJOR_AXIS":"6925.328","CENTER_NAME":"EARTH","OBJECT_ID":"2020-055R","BSTAR":"-0.00000639890000","TLE_LINE2":"2 46042  53.0542 137.4010 0001105  83.5670 276.5445 15.06406768138805","APOAPSIS":"547.958","MEAN_ELEMENT_THEORY":"SGP4","RCS_SIZE":"LARGE"}];
